NORAD_CAT_ID,OBJECT_NAME,OBJECT_TYPE,EPOCH,MEAN_MOTION,ECCENTRICITY,INCLINATION,RA_OF_ASC_NODE,ARG_OF_PERICENTER,MEAN_ANOMALY,BSTAR,MEAN_MOTION_DOT,MEAN_MOTION_DDOT,TLE_LINE0,TLE_LINE1,TLE_LINE2,SEMIMAJOR_AXIS,PERIOD,APOGEE,PERIGEE,DECAYED
55661.0,STARLINK-5475,PAYLOAD,2023-11-24 18:54:35,14.9833381,0.0002777,69.9993,112.102,259.1393,100.9454,-1.5815e-05,-2.82e-06,0.0,0 STARLINK-5475,1 55661U 23021AK  23328.78791530 -.00000282  00000-0 -15815-4 0  9997,2 55661  69.9993 112.1020 0002777 259.1393 100.9454 14.98333810 44070,6950.181,96.107,573.976,570.116,0.0
55661.0,STARLINK-5475,PAYLOAD,2023-11-25 14:08:12,14.98328159,0.0002991,69.9996,110.0821,268.4786,91.603,0.00011057,1.226e-05,0.0,0 STARLINK-5475,1 55661U 23021AK  23329.58903562  .00001226  00000-0  11057-3 0  9996,2 55661  69.9996 110.0821 0002991 268.4786  91.6030 14.98328159 44195,6950.199,96.107,574.142,569.985,0.0
55661.0,STARLINK-5475,PAYLOAD,2023-11-25 18:56:35,14.98339073,0.0002764,69.9998,109.5773,262.1866,97.8979,0.00024094,2.784e-05,0.0,0 STARLINK-5475,1 55661U 23021AK  23329.78930421  .00002784  00000-0  24094-3 0  9997,2 55661  69.9998 109.5773 0002764 262.1866  97.8979 14.98339073 44225,6950.165,96.106,573.951,570.109,0.0
55661.0,STARLINK-5475,PAYLOAD,2023-11-26 10:57:56,14.98337047,0.0002474,70.0009,107.8959,246.823,113.2669,8.8229e-05,9.6e-06,0.0,0 STARLINK-5475,1 55661U 23021AK  23330.45690608  .00000960  00000-0  88229-4 0  9998,2 55661  70.0009 107.8959 0002474 246.8230 113.2669 14.98337047 44026,6950.171,96.107,573.756,570.317,0.0
55661.0,STARLINK-5475,PAYLOAD,2023-11-26 14:10:12,14.98335146,0.0002527,70.0007,107.5592,248.5568,111.5321,6.3895e-05,6.7e-06,0.0,0 STARLINK-5475,1 55661U 23021AK  23330.59042730  .00000670  00000-0  63895-4 0  9990,2 55661  70.0007 107.5592 0002527 248.5568 111.5321 14.98335146 44345,6950.177,96.107,573.798,570.286,0.0
55661.0,STARLINK-5475,PAYLOAD,2023-11-26 18:58:37,14.98331824,0.0002666,70.0003,107.0538,256.3564,103.7298,1.253e-05,5.7e-07,0.0,0 STARLINK-5475,1 55661U 23021AK  23330.79071064  .00000057  00000-0  12530-4 0  9993,2 55661  70.0003 107.0538 0002666 256.3564 103.7298 14.98331824 44078,6950.187,96.107,573.905,570.199,0.0
55661.0,STARLINK-5475,PAYLOAD,2023-11-27 10:59:58,14.98325806,0.0002303,70.0019,105.3726,240.6824,119.4105,-0.0001592,-1.992e-05,0.0,0 STARLINK-5475,1 55661U 23021AK  23331.45832038 -.00001992  00000-0 -15920-3 0  9999,2 55661  70.0019 105.3726 0002303 240.6824 119.4105 14.98325806 44173,6950.206,96.107,573.671,570.47,0.0
55661.0,STARLINK-5475,PAYLOAD,2023-11-27 14:12:15,14.98324457,0.0002509,70.0011,105.0355,245.057,115.0329,-0.00020665,-2.557e-05,0.0,0 STARLINK-5475,1 55661U 23021AK  23331.59184288 -.00002557  00000-0 -20665-3 0  9991,2 55661  70.0011 105.0355 0002509 245.0570 115.0329 14.98324457 44491,6950.21,96.107,573.819,570.331,0.0
55661.0,STARLINK-5475,PAYLOAD,2023-11-27 19:00:39,14.98322388,0.0002596,70.0009,104.53,248.9829,111.1053,-0.00023145,-2.853e-05,0.0,0 STARLINK-5475,1 55661U 23021AK  23331.79212578 -.00002853  00000-0 -23145-3 0  9992,2 55661  70.0009 104.5300 0002596 248.9829 111.1053 14.98322388 44523,6950.216,96.107,573.886,570.277,0.0
55661.0,STARLINK-5475,PAYLOAD,2023-11-28 11:01:59,14.98330777,0.0003343,69.9989,102.8446,270.8058,89.2718,1.0998e-05,3.8e-07,0.0,0 STARLINK-5475,1 55661U 23021AK  23332.45971296  .00000038  00000-0  10998-4 0  9999,2 55661  69.9989 102.8446 0003343 270.8058  89.2718 14.98330777 44320,6950.19,96.107,574.379,569.732,0.0
55661.0,STARLINK-5475,PAYLOAD,2023-11-28 14:14:15,14.98331097,0.0003078,69.9997,102.5074,272.6523,87.4284,3.9705e-05,3.81e-06,0.0,0 STARLINK-5475,1 55661U 23021AK  23332.59323283  .00000381  00000-0  39705-4 0  9999,2 55661  69.9997 102.5074 0003078 272.6523  87.4284 14.98331097 44644,6950.189,96.107,574.194,569.915,0.0
55661.0,STARLINK-5475,PAYLOAD,2023-11-28 19:02:38,14.98341183,0.0003017,70.0001,102.0034,282.5928,77.4894,0.00014199,1.602e-05,0.0,0 STARLINK-5475,1 55661U 23021AK  23332.79350423  .00001602  00000-0  14199-3 0  9993,2 55661  70.0001 102.0034 0003017 282.5928  77.4894 14.98341183 44379,6950.158,96.106,574.12,569.926,0.0
55661.0,STARLINK-5475,PAYLOAD,2023-11-29 12:40:08,14.98320152,0.0002808,70.0017,100.1537,271.4037,88.6801,0.00010767,1.192e-05,0.0,0 STARLINK-5475,1 55661U 23021AK  23333.52787838  .00001192  00000-0  10767-3 0  9990,2 55661  70.0017 100.1537 0002808 271.4037  88.6801 14.98320152 44485,6950.223,96.108,574.04,570.137,0.0
55661.0,STARLINK-5475,PAYLOAD,2023-11-30 11:06:01,14.98330359,0.000293,70.0007,97.7963,263.3671,96.7154,-7.5468e-06,-1.83e-06,0.0,0 STARLINK-5475,1 55661U 23021AK  23334.46251511 -.00000183  00000-0 -75468-5 0  9990,2 55661  70.0007  97.7963 0002930 263.3671  96.7154 14.98330359 44625,6950.192,96.107,574.093,570.02,0.0
55661.0,STARLINK-5475,PAYLOAD,2023-12-01 11:08:02,14.98325768,0.0002757,70.0008,95.2706,256.5121,103.5731,1.7474e-05,1.16e-06,0.0,0 STARLINK-5475,1 55661U 23021AK  23335.46391633  .00000116  00000-0  17474-4 0  9997,2 55661  70.0008  95.2706 0002757 256.5121 103.5731 14.98325768 44777,6950.206,96.107,573.987,570.155,0.0
55661.0,STARLINK-5475,PAYLOAD,2023-12-01 17:32:34,14.98331867,0.0002821,70.0009,94.5973,249.4459,110.6398,7.9303e-05,8.53e-06,0.0,0 STARLINK-5475,1 55661U 23021AK  23335.73095089  .00000853  00000-0  79303-4 0  9990,2 55661  70.0009  94.5973 0002821 249.4459 110.6398 14.98331867 44813,6950.187,96.107,574.013,570.091,0.0
55661.0,STARLINK-5475,PAYLOAD,2023-12-02 11:10:02,14.98334818,0.000248,70.0039,92.7487,244.9556,115.1346,0.00021384,2.46e-05,0.0,0 STARLINK-5475,1 55661U 23021AK  23336.46530161  .00002460  00000-0  21384-3 0  9997,2 55661  70.0039  92.7487 0002480 244.9556 115.1346 14.98334818 44929,6950.178,96.107,573.767,570.319,0.0
55661.0,STARLINK-5475,PAYLOAD,2023-12-02 14:22:17,14.98340268,0.0002552,70.0026,92.4116,236.3984,123.6932,0.00020131,2.31e-05,0.0,0 STARLINK-5475,1 55661U 23021AK  23336.59881704  .00002310  00000-0  20131-3 0  9996,2 55661  70.0026  92.4116 0002552 236.3984 123.6932 14.98340268 45248,6950.161,96.106,573.8,570.252,0.0
55661.0,STARLINK-5475,PAYLOAD,2023-12-02 17:34:33,14.98343627,0.000235,70.0018,92.0717,261.0243,99.0651,0.00026208,3.037e-05,0.0,0 STARLINK-5475,1 55661U 23021AK  23336.73233374  .00003037  00000-0  26208-3 0  9994,2 55661  70.0018  92.0717 0002350 261.0243  99.0651 14.98343627 44965,6950.151,96.106,573.649,570.382,0.0
55661.0,STARLINK-5475,PAYLOAD,2023-12-03 11:12:06,14.98298198,0.000273,70.0011,90.2216,265.7158,94.3689,-0.00032844,-4.006e-05,0.0,0 STARLINK-5475,1 55661U 23021AK  23337.46673902 -.00004006  00000-0 -32844-3 0  9992,2 55661  70.0011  90.2216 0002730 265.7158  94.3689 14.98298198 45074,6950.291,96.109,574.054,570.259,0.0
55661.0,STARLINK-5475,PAYLOAD,2023-12-03 14:24:22,14.98296367,0.0002502,70.0014,89.8841,259.184,100.9038,-0.00034613,-4.217e-05,0.0,0 STARLINK-5475,1 55661U 23021AK  23337.60026322 -.00004217  00000-0 -34613-3 0  9996,2 55661  70.0014  89.8841 0002502 259.1840 100.9038 14.98296367 45390,6950.297,96.109,573.901,570.423,0.0
55661.0,STARLINK-5475,PAYLOAD,2023-12-04 11:14:06,14.98320272,0.0002864,70.0014,87.6963,272.1388,87.9443,-0.00021014,-2.599e-05,0.0,0 STARLINK-5475,1 55661U 23021AK  23338.46813389 -.00002599  00000-0 -21014-3 0  9990,2 55661  70.0014  87.6963 0002864 272.1388  87.9443 14.98320272 45223,6950.223,96.108,574.079,570.097,0.0
55661.0,STARLINK-5475,PAYLOAD,2023-12-04 12:50:14,14.98325462,0.0003209,70.0004,87.5272,275.5854,84.4939,-0.00024946,-3.068e-05,0.0,0 STARLINK-5475,1 55661U 23021AK  23338.53489258 -.00003068  00000-0 -24946-3 0  9991,2 55661  70.0004  87.5272 0003209 275.5854  84.4939 14.98325462 45535,6950.207,96.107,574.302,569.842,0.0
55661.0,STARLINK-5475,PAYLOAD,2023-12-05 11:16:06,14.98318571,0.0003656,69.9991,85.1703,279.7546,80.32,0.00038025,4.446e-05,0.0,0 STARLINK-5475,1 55661U 23021AK  23339.46952193  .00004446  00000-0  38025-3 0  9999,2 55661  69.9991  85.1703 0003656 279.7546  80.3200 14.98318571 45371,6950.228,96.108,574.634,569.552,0.0
55661.0,STARLINK-5475,PAYLOAD,2023-12-06 11:18:07,14.98341194,0.0003721,69.9985,82.6426,285.4034,74.6714,0.00012671,1.42e-05,0.0,0 STARLINK-5475,1 55661U 23021AK  23340.47091590  .00001420  00000-0  12671-3 0  9995,2 55661  69.9985  82.6426 0003721 285.4034  74.6714 14.98341194 45527,6950.158,96.106,574.609,569.437,0.0
55661.0,STARLINK-5475,PAYLOAD,2023-12-07 11:20:08,14.98338712,0.0003252,69.9998,80.1203,274.2799,85.7988,-0.00010693,-1.369e-05,0.0,0 STARLINK-5475,1 55661U 23021AK  23341.47231772 -.00001369  00000-0 -10693-3 0  9990,2 55661  69.9998  80.1203 0003252 274.2799  85.7988 14.98338712 45674,6950.166,96.106,574.291,569.771,0.0
55661.0,STARLINK-5475,PAYLOAD,2023-12-07 12:56:16,14.98337961,0.0003178,70.0001,79.9523,273.5603,86.5192,-0.00011192,-1.428e-05,0.0,0 STARLINK-5475,1 55661U 23021AK  23341.53907790 -.00001428  00000-0 -11192-3 0  9998,2 55661  70.0001  79.9523 0003178 273.5603  86.5192 14.98337961 45981,6950.168,96.106,574.242,569.825,0.0
55661.0,STARLINK-5475,PAYLOAD,2023-12-08 11:22:08,14.98334126,0.0003356,70.0001,77.5958,275.1692,84.9084,-4.8111e-05,-6.67e-06,0.0,0 STARLINK-5475,1 55661U 23021AK  23342.47371435 -.00000667  00000-0 -48111-4 0  9999,2 55661  70.0001  77.5958 0003356 275.1692  84.9084 14.98334126 45826,6950.18,96.107,574.378,569.713,0.0
55661.0,STARLINK-5475,PAYLOAD,2023-12-08 12:58:16,14.98334695,0.0003382,70.0,77.4275,276.1483,83.9291,-5.0368e-05,-6.94e-06,0.0,0 STARLINK-5475,1 55661U 23021AK  23342.54047376 -.00000694  00000-0 -50368-4 0  9998,2 55661  70.0000  77.4275 0003382 276.1483  83.9291 14.98334695 46139,6950.178,96.107,574.394,569.693,0.0
55661.0,STARLINK-5475,PAYLOAD,2023-12-08 16:10:32,14.98336189,0.0003246,70.0,77.0907,273.2701,86.8087,-1.031e-05,-2.16e-06,0.0,0 STARLINK-5475,1 55661U 23021AK  23342.67399122 -.00000216  00000-0 -10310-4 0  9994,2 55661  70.0000  77.0907 0003246 273.2701  86.8087 14.98336189 46154,6950.174,96.107,574.295,569.783,0.0
